OBJECT_NAME,OBJECT_ID,EPOCH,MEAN_MOTION,ECCENTRICITY,INCLINATION,RA_OF_ASC_NODE,ARG_OF_PERICENTER,MEAN_ANOMALY,EPHEMERIS_TYPE,CLASSIFICATION_TYPE,NORAD_CAT_ID,ELEMENT_SET_NO,REV_AT_EPOCH,BSTAR,MEAN_MOTION_DOT,MEAN_MOTION_DDOT
IRIDIUM 135,2017-083A,2026-07-08T20:23:23.236800,14.34217036,.00021713,86.3981,312.9593,93.0917,267.0528,0,U,43070,999,44725,.8713588E-5,.44E-6,0
IRIDIUM 138,2017-083B,2026-07-08T20:59:55.171968,14.34216935,.00020705,86.3995,312.6476,91.1830,268.9603,0,U,43071,999,44724,.40221664E-4,.132E-5,0
IRIDIUM 116,2017-083C,2026-07-08T20:14:14.855136,14.34219576,.0002372,86.3982,312.9478,100.2610,259.8854,0,U,43072,999,44727,.58600266E-4,.184E-5,0
IRIDIUM 130,2017-083D,2026-07-08T21:09:03.171744,14.34216243,.00021172,86.3986,313.2101,106.4994,253.6435,0,U,43073,999,44722,.61739441E-4,.193E-5,0
IRIDIUM 151,2017-083E,2026-07-08T20:32:31.141536,14.34216366,.0002217,86.3984,313.0005,95.5561,264.5887,0,U,43074,999,44724,.39407394E-4,.13E-5,0
IRIDIUM 134,2017-083F,2026-07-08T21:27:19.182528,14.34216913,.00020672,86.3983,312.9933,95.5365,264.6067,0,U,43075,999,44721,-.34865062E-4,-.78E-6,0
IRIDIUM 137,2017-083G,2026-07-08T20:05:07.320192,14.34216904,.00026368,86.3986,313.1103,96.2932,263.8564,0,U,43076,999,44727,.41269857E-4,.135E-5,0
IRIDIUM 141,2017-083H,2026-07-08T19:55:59.048256,14.34218235,.00021824,86.3981,312.9422,91.8876,268.2570,0,U,43077,999,44727,.10317666E-4,.49E-6,0
IRIDIUM 153,2017-083J,2026-07-08T18:47:07.390752,14.34217466,.00020982,86.3962,281.4426,94.0195,266.1240,0,U,43078,999,44837,.96886406E-4,.291E-5,0
IRIDIUM 131,2017-083K,2026-07-08T21:18:11.206080,14.34216914,.00021071,86.3985,313.1060,92.8846,267.2591,0,U,43079,999,44721,-.91415003E-4,-.236E-5,0
IRIDIUM 144,2018-030A,2026-07-08T20:36:43.426944,14.34217724,.00023573,86.3960,281.3392,97.4175,262.7289,0,U,43249,999,43324,.281003E-5,.28E-6,0
IRIDIUM 149,2018-030B,2026-07-08T19:05:23.427456,14.34216843,.00022477,86.3961,281.3327,94.0476,266.0977,0,U,43250,999,43325,.2509948E-4,.9E-6,0
IRIDIUM 157,2018-030C,2026-07-08T17:52:19.506144,14.34216385,.00022358,86.3962,281.4074,94.0610,266.0841,0,U,43251,999,43322,.3008645E-4,.104E-5,0
IRIDIUM 140,2018-030D,2026-07-08T20:00:11.374272,14.34215497,.00022384,86.3962,281.3829,94.9599,265.1853,0,U,43252,999,43329,.32952013E-4,.112E-5,0
IRIDIUM 145,2018-030E,2026-07-08T19:41:55.076640,14.34215985,.00024207,86.3961,281.3600,102.8787,257.2680,0,U,43253,999,43322,.27835043E-4,.98E-6,0
IRIDIUM 146,2018-030F,2026-07-08T20:54:59.274432,14.34217368,.00023198,86.3961,281.3513,97.8277,262.3183,0,U,43254,999,43324,.65048695E-4,.202E-5,0
IRIDIUM 148,2018-030G,2026-07-08T18:28:51.547584,14.34216368,.00023193,86.3963,281.4372,94.5491,265.5970,0,U,43255,999,43326,.43209237E-4,.141E-5,0
IRIDIUM 142,2018-030H,2026-07-08T19:23:39.468480,14.34217056,.0002366,86.3959,281.3095,98.8467,261.2997,0,U,43256,999,43323,.64833875E-4,.201E-5,0
IRIDIUM 150,2018-030J,2026-07-08T18:37:59.087712,14.34219245,.00022526,86.3963,281.4400,96.2085,263.9368,0,U,43257,999,43325,.2861572E-4,.1E-5,0
IRIDIUM 143,2018-030K,2026-07-08T19:51:03.364992,14.34216871,.00023025,86.3965,281.5118,98.6131,261.5326,0,U,43258,999,43319,.57885615E-4,.182E-5,0
IRIDIUM 161,2018-047C,2026-07-08T19:12:17.610048,14.43284066,.00023616,86.4470,79.4336,79.0165,281.1301,0,U,43478,999,42825,.5397813E-4,.202E-5,0
IRIDIUM 152,2018-047D,2026-07-08T19:11:46.924224,14.34218430,.00021798,86.3945,79.2950,82.2916,277.8527,0,U,43479,999,42558,.48818763E-4,.156E-5,0
IRIDIUM 147,2018-047E,2026-07-08T17:40:25.983840,14.34216197,.00022925,86.3944,79.3267,91.4784,268.6675,0,U,43480,999,42557,.48417765E-4,.155E-5,0
IRIDIUM 110,2018-047F,2026-07-08T17:49:34.293792,14.34216846,.00022579,86.3950,79.4171,77.1215,283.0233,0,U,43481,999,42556,.55696043E-4,.176E-5,0
IRIDIUM 162,2018-047G,2026-07-08T15:43:33.086784,14.43282896,.00022061,86.4469,79.3850,84.1542,275.9910,0,U,43482,999,42822,.60358485E-4,.223E-5,0
IRIDIUM 160,2018-061A,2026-07-08T16:31:34.478400,14.34217172,.00022602,86.3942,47.8045,85.8132,274.3322,0,U,43569,999,41645,.34754242E-4,.117E-5,0
IRIDIUM 166,2018-061B,2026-07-08T15:27:38.373696,14.34217902,.00022431,86.3941,47.7732,89.1735,270.9718,0,U,43570,999,41647,-.246328E-6,.19E-6,0
IRIDIUM 158,2018-061C,2026-07-08T14:41:58.358400,14.34216867,.00020106,86.3939,47.7965,84.8560,275.2865,0,U,43571,999,41643,-.76103592E-4,-.193E-5,0
IRIDIUM 165,2018-061D,2026-07-08T15:18:30.309984,14.34215176,.00021488,86.3947,47.8329,88.4828,271.6614,0,U,43572,999,41646,.27444296E-4,.97E-6,0
IRIDIUM 155,2018-061E,2026-07-08T16:04:10.265664,14.34216503,.00020085,86.3936,47.6870,87.1912,272.9514,0,U,43573,999,41643,-.69483696E-4,-.175E-5,0
