IRIDIUM 135             
1 43070U 17083A   26189.84957450  .00000044  00000+0  87136-5 0  9998
2 43070  86.3981 312.9593 0002171  93.0917 267.0528 14.34217036447256
IRIDIUM 138             
1 43071U 17083B   26189.87494412  .00000132  00000+0  40222-4 0  9998
2 43071  86.3995 312.6476 0002070  91.1830 268.9603 14.34216935447240
IRIDIUM 116             
1 43072U 17083C   26189.84322749  .00000184  00000+0  58600-4 0  9995
2 43072  86.3982 312.9478 0002372 100.2610 259.8854 14.34219576447279
IRIDIUM 130             
1 43073U 17083D   26189.88128671  .00000193  00000+0  61739-4 0  9995
2 43073  86.3986 313.2101 0002117 106.4994 253.6435 14.34216243447221
IRIDIUM 151             
1 43074U 17083E   26189.85591599  .00000130  00000+0  39407-4 0  9994
2 43074  86.3984 313.0005 0002217  95.5561 264.5887 14.34216366447240
IRIDIUM 134             
1 43075U 17083F   26189.89397202 -.00000078  00000+0 -34865-4 0  9990
2 43075  86.3983 312.9933 0002067  95.5365 264.6067 14.34216913447219
IRIDIUM 137             
1 43076U 17083G   26189.83689028  .00000135  00000+0  41270-4 0  9995
2 43076  86.3986 313.1103 0002636  96.2932 263.8564 14.34216904447274
IRIDIUM 141             
1 43077U 17083H   26189.83054454  .00000049  00000+0  10318-4 0  9998
2 43077  86.3981 312.9422 0002182  91.8876 268.2570 14.34218235447270
IRIDIUM 153             
1 43078U 17083J   26189.78272443  .00000291  00000+0  96886-4 0  9996
2 43078  86.3962 281.4426 0002098  94.0195 266.1240 14.34217466448377
IRIDIUM 131             
1 43079U 17083K   26189.88762970 -.00000236  00000+0 -91415-4 0  9991
2 43079  86.3985 313.1060 0002107  92.8846 267.2591 14.34216914447210
IRIDIUM 144             
1 43249U 18030A   26189.85883596  .00000028  00000+0  28100-5 0  9997
2 43249  86.3960 281.3392 0002357  97.4175 262.7289 14.34217724433241
IRIDIUM 149             
1 43250U 18030B   26189.79541004  .00000090  00000+0  25099-4 0  9999
2 43250  86.3961 281.3327 0002247  94.0476 266.0977 14.34216843433250
IRIDIUM 157             
1 43251U 18030C   26189.74467021  .00000104  00000+0  30086-4 0  9999
2 43251  86.3962 281.4074 0002235  94.0610 266.0841 14.34216385433227
IRIDIUM 140             
1 43252U 18030D   26189.83346498  .00000112  00000+0  32952-4 0  9997
2 43252  86.3962 281.3829 0002238  94.9599 265.1853 14.34215497433296
IRIDIUM 145             
1 43253U 18030E   26189.82077635  .00000098  00000+0  27835-4 0  9998
2 43253  86.3961 281.3600 0002420 102.8787 257.2680 14.34215985433229
IRIDIUM 146             
1 43254U 18030F   26189.87151938  .00000202  00000+0  65049-4 0  9999
2 43254  86.3961 281.3513 0002319  97.8277 262.3183 14.34217368433241
IRIDIUM 148             
1 43255U 18030G   26189.77004106  .00000141  00000+0  43209-4 0  9999
2 43255  86.3963 281.4372 0002319  94.5491 265.5970 14.34216368433260
IRIDIUM 142             
1 43256U 18030H   26189.80809570  .00000201  00000+0  64834-4 0  9996
2 43256  86.3959 281.3095 0002366  98.8467 261.2997 14.34217056433233
IRIDIUM 150             
1 43257U 18030J   26189.77637833  .00000100  00000+0  28616-4 0  9990
2 43257  86.3963 281.4400 0002252  96.2085 263.9368 14.34219245433257
IRIDIUM 143             
1 43258U 18030K   26189.82712228  .00000182  00000+0  57886-4 0  9990
2 43258  86.3965 281.5118 0002302  98.6131 261.5326 14.34216871433194
IRIDIUM 161             
1 43478U 18047C   26189.80020382  .00000202  00000+0  53978-4 0  9994
2 43478  86.4470  79.4336 0002361  79.0165 281.1301 14.43284066428254
IRIDIUM 152             
1 43479U 18047D   26189.79984866  .00000156  00000+0  48819-4 0  9995
2 43479  86.3945  79.2950 0002179  82.2916 277.8527 14.34218430425585
IRIDIUM 147             
1 43480U 18047E   26189.73641185  .00000155  00000+0  48418-4 0  9999
2 43480  86.3944  79.3267 0002292  91.4784 268.6675 14.34216197425578
IRIDIUM 110             
1 43481U 18047F   26189.74275803  .00000176  00000+0  55696-4 0  9990
2 43481  86.3950  79.4171 0002257  77.1215 283.0233 14.34216846425563
IRIDIUM 162             
1 43482U 18047G   26189.65524406  .00000223  00000+0  60358-4 0  9991
2 43482  86.4469  79.3850 0002206  84.1542 275.9910 14.43282896428224
IRIDIUM 160             
1 43569U 18061A   26189.68859350  .00000117  00000+0  34754-4 0  9998
2 43569  86.3942  47.8045 0002260  85.8132 274.3322 14.34217172416451
IRIDIUM 166             
1 43570U 18061B   26189.64419414  .00000019  00000+0 -24633-6 0  9998
2 43570  86.3941  47.7732 0002243  89.1735 270.9718 14.34217902416475
IRIDIUM 158             
1 43571U 18061C   26189.61248100 -.00000193  00000+0 -76104-4 0  9990
2 43571  86.3939  47.7965 0002010  84.8560 275.2865 14.34216867416437
IRIDIUM 165             
1 43572U 18061D   26189.63785081  .00000097  00000+0  27444-4 0  9991
2 43572  86.3947  47.8329 0002148  88.4828 271.6614 14.34215176416468
IRIDIUM 155             
1 43573U 18061E   26189.66956326 -.00000175  00000+0 -69484-4 0  9996
2 43573  86.3936  47.6870 0002008  87.1912 272.9514 14.34216503416436
